NORAD_CAT_ID,OBJECT_NAME,OBJECT_TYPE,EPOCH,MEAN_MOTION,ECCENTRICITY,INCLINATION,RA_OF_ASC_NODE,ARG_OF_PERICENTER,MEAN_ANOMALY,BSTAR,MEAN_MOTION_DOT,MEAN_MOTION_DDOT,TLE_LINE0,TLE_LINE1,TLE_LINE2,SEMIMAJOR_AXIS,PERIOD,APOGEE,PERIGEE,DECAYED
55939.0,STARLINK-5918,PAYLOAD,2023-04-17 16:32:37,15.69924394,0.0003159,70.0003,94.1301,272.2245,87.8589,1.3231e-05,1.379e-05,0.0,0 STARLINK-5918,1 55939U 23037AB  23107.68932788  .00001379  00000-0  13231-4 0  9994,2 55939  70.0003  94.1301 0003159 272.2245  87.8589 15.69924394  5049,6737.25,91.724,361.244,356.987,0.0
55939.0,STARLINK-5918,PAYLOAD,2023-04-18 07:50:08,15.6994207,0.0003201,70.0,92.3391,270.9017,89.1812,6.2605e-05,7.327e-05,0.0,0 STARLINK-5918,1 55939U 23037AB  23108.32648914  .00007327  00000-0  62605-4 0  9999,2 55939  70.0000  92.3391 0003201 270.9017  89.1812 15.69942070  5141,6737.2,91.723,361.221,356.908,0.0
55939.0,STARLINK-5918,PAYLOAD,2023-04-19 08:18:10,15.69943187,0.000343,70.0009,89.4739,265.9658,94.1145,0.00015435,0.00018402,0.0,0 STARLINK-5918,1 55939U 23037AB  23109.34595782  .00018402  00000-0  15435-3 0  9990,2 55939  70.0009  89.4739 0003430 265.9658  94.1145 15.69943187  5642,6737.197,91.723,361.372,356.751,0.0
55939.0,STARLINK-5918,PAYLOAD,2023-04-20 08:46:13,15.69928813,0.0003403,70.0013,86.6066,268.5374,91.5432,0.00010054,0.00011896,0.0,0 STARLINK-5918,1 55939U 23037AB  23110.36542978  .00011896  00000-0  10054-3 0  9995,2 55939  70.0013  86.6066 0003403 268.5374  91.5432 15.69928813  5462,6737.238,91.724,361.395,356.81,0.0
55939.0,STARLINK-5918,PAYLOAD,2023-04-21 04:38:59,15.6992877,0.0004167,70.0021,84.2796,272.4781,87.5938,7.8801e-05,9.276e-05,0.0,0 STARLINK-5918,1 55939U 23037AB  23111.19374683  .00009276  00000-0  78801-4 0  9997,2 55939  70.0021  84.2796 0004167 272.4781  87.5938 15.69928770  5939,6737.238,91.724,361.91,356.295,0.0
55939.0,STARLINK-5918,PAYLOAD,2023-04-21 06:10:44,15.69938914,0.0003197,70.0018,84.0994,269.17,90.9129,0.00011677,0.00013859,0.0,0 STARLINK-5918,1 55939U 23037AB  23111.25746264  .00013859  00000-0  11677-3 0  9991,2 55939  70.0018  84.0994 0003197 269.1700  90.9129 15.69938914  5941,6737.209,91.723,361.228,356.92,0.0
55939.0,STARLINK-5918,PAYLOAD,2023-04-21 21:28:16,15.69936607,0.0003246,70.0018,82.3075,273.2206,86.8619,6.9341e-05,8.137e-05,0.0,0 STARLINK-5918,1 55939U 23037AB  23111.89463055  .00008137  00000-0  69341-4 0  9990,2 55939  70.0018  82.3075 0003246 273.2206  86.8619 15.69936607  5703,6737.215,91.723,361.267,356.893,0.0
55939.0,STARLINK-5918,PAYLOAD,2023-04-21 23:00:01,15.69935346,0.0003136,70.0012,82.1289,271.9489,88.1348,8.1925e-05,9.654e-05,0.0,0 STARLINK-5918,1 55939U 23037AB  23111.95834678  .00009654  00000-0  81925-4 0  9997,2 55939  70.0012  82.1289 0003136 271.9489  88.1348 15.69935346  5712,6737.219,91.724,361.197,356.971,0.0
55939.0,STARLINK-5918,PAYLOAD,2023-04-23 07:06:49,15.69920064,0.0002607,70.0016,78.3662,273.5071,86.5827,4.3778e-05,5.053e-05,0.0,0 STARLINK-5918,1 55939U 23037AB  23113.29640473  .00005053  00000-0  43778-4 0  9997,2 55939  70.0016  78.3662 0002607 273.5071  86.5827 15.69920064  6261,6737.263,91.724,360.884,357.371,0.0
55939.0,STARLINK-5918,PAYLOAD,2023-04-23 20:52:35,15.69928582,0.0004347,70.003,76.7556,249.7708,110.302,3.8602e-05,4.433e-05,0.0,0 STARLINK-5918,1 55939U 23037AB  23113.86985052  .00004433  00000-0  38602-4 0  9996,2 55939  70.0030  76.7556 0004347 249.7708 110.3020 15.69928582  6013,6737.238,91.724,362.032,356.175,0.0
55939.0,STARLINK-5918,PAYLOAD,2023-04-24 07:34:49,15.69987912,0.0005004,70.0029,75.5004,261.0883,98.9747,0.00025295,0.00030404,0.0,0 STARLINK-5918,1 55939U 23037AB  23114.31584895  .00030404  00000-0  25295-3 0  9997,2 55939  70.0029  75.5004 0005004 261.0883  98.9747 15.69987912  6084,6737.069,91.72,362.305,355.562,0.0
55939.0,STARLINK-5918,PAYLOAD,2023-04-25 06:31:00,15.69940431,0.0003504,70.0026,72.8134,260.2105,99.8695,-0.00027898,-0.00033647,0.0,0 STARLINK-5918,1 55939U 23037AB  23115.27153588 -.00033647  00000-0 -27898-3 0  9999,2 55939  70.0026  72.8134 0003504 260.2105  99.8695 15.69940431  6230,6737.204,91.723,361.43,356.709,0.0
55939.0,STARLINK-5918,PAYLOAD,2023-04-26 06:59:00,15.69967978,0.0002979,70.0015,69.9476,261.3567,98.7291,-4.1396e-05,-5.196e-05,0.0,0 STARLINK-5918,1 55939U 23037AB  23116.29097626 -.00005196  00000-0 -41396-4 0  9990,2 55939  70.0015  69.9476 0002979 261.3567  98.7291 15.69967978  6395,6737.126,91.722,360.998,356.984,0.0
55939.0,STARLINK-5918,PAYLOAD,2023-04-26 14:37:46,15.69952523,0.0003652,70.0009,69.0527,258.0357,102.043,-0.00010142,-0.00012405,0.0,0 STARLINK-5918,1 55939U 23037AB  23116.60956050 -.00012405  00000-0 -10142-3 0  9995,2 55939  70.0009  69.0527 0003652 258.0357 102.0430 15.69952523  6445,6737.17,91.723,361.495,356.574,0.0
55939.0,STARLINK-5918,PAYLOAD,2023-04-27 14:00:01,15.69920946,0.0003402,70.0016,66.3138,269.9118,191.5114,-0.00010445,-0.00012751,0.0,0 STARLINK-5918,1 55939U 23037AB  23117.58335648 -.00012751  00000-0 -10445-3 0  9997,2 55939  70.0016  66.3138 0003402 269.9118 191.5114 15.69920946  1306,6737.26,91.724,361.417,356.833,0.0
55939.0,STARLINK-5918,PAYLOAD,2023-04-27 21:12:58,15.69929706,0.0003,70.0005,65.4711,279.2959,80.7898,3.6969e-05,4.236e-05,0.0,0 STARLINK-5918,1 55939U 23037AB  23117.88400655  .00004236  00000-0  36969-4 0  9998,2 55939  70.0005  65.4711 0003000 279.2959  80.7898 15.69929706  6982,6737.235,91.724,361.121,357.079,0.0
55939.0,STARLINK-5918,PAYLOAD,2023-04-28 06:23:28,15.69924819,0.0003271,70.0004,64.3937,269.2317,90.8504,1.4907e-05,1.58e-05,0.0,0 STARLINK-5918,1 55939U 23037AB  23118.26630664  .00001580  00000-0  14907-4 0  9993,2 55939  70.0004  64.3937 0003271 269.2317  90.8504 15.69924819  7040,6737.249,91.724,361.318,356.91,0.0
55939.0,STARLINK-5918,PAYLOAD,2023-04-29 06:51:30,15.69931587,0.0003442,70.0009,61.5293,271.1424,88.9377,3.7171e-05,4.26e-05,0.0,0 STARLINK-5918,1 55939U 23037AB  23119.28577090  .00004260  00000-0  37171-4 0  9995,2 55939  70.0009  61.5293 0003442 271.1424  88.9377 15.69931587  6865,6737.23,91.724,361.414,356.776,0.0
55939.0,STARLINK-5918,PAYLOAD,2023-04-29 19:05:31,15.69921296,0.000337,70.0012,60.0956,266.6072,93.4738,9.5091e-06,9.31e-06,0.0,0 STARLINK-5918,1 55939U 23037AB  23119.79550789  .00000931  00000-0  95091-5 0  9994,2 55939  70.0012  60.0956 0003370 266.6072  93.4738 15.69921296  7282,6737.259,91.724,361.395,356.854,0.0
55939.0,STARLINK-5918,PAYLOAD,2023-04-29 22:09:02,15.6991891,0.0003313,70.0014,59.7368,264.0529,96.0289,8.1951e-06,7.73e-06,0.0,0 STARLINK-5918,1 55939U 23037AB  23119.92294279  .00000773  00000-0  81951-5 0  9992,2 55939  70.0014  59.7368 0003313 264.0529  96.0289 15.69918910  6965,6737.266,91.724,361.363,356.899,0.0
55939.0,STARLINK-5918,PAYLOAD,2023-04-30 21:05:19,15.69922429,0.0002863,70.0014,57.0478,251.2421,108.8465,-3.0697e-06,-5.81e-06,0.0,0 STARLINK-5918,1 55939U 23037AB  23120.87869342 -.00000581  00000-0 -30697-5 0  9997,2 55939  70.0014  57.0478 0002863 251.2421 108.8465 15.69922429  7459,6737.256,91.724,361.05,357.192,0.0
55939.0,STARLINK-5918,PAYLOAD,2023-05-01 04:44:04,15.69920415,0.000248,70.0033,56.1542,236.6396,123.4563,1.6239e-05,1.74e-05,0.0,0 STARLINK-5918,1 55939U 23037AB  23121.19727867  .00001740  00000-0  16239-4 0  9999,2 55939  70.0033  56.1542 0002480 236.6396 123.4563 15.69920415  7168,6737.262,91.724,360.798,357.456,0.0
55939.0,STARLINK-5918,PAYLOAD,2023-05-01 21:33:20,15.69927042,0.0002894,70.0012,54.1845,255.2547,104.8328,2.2463e-05,2.489e-05,0.0,0 STARLINK-5918,1 55939U 23037AB  23121.89815738  .00002489  00000-0  22463-4 0  9998,2 55939  70.0012  54.1845 0002894 255.2547 104.8328 15.69927042  7270,6737.243,91.724,361.057,357.158,0.0
55939.0,STARLINK-5918,PAYLOAD,2023-05-01 23:05:05,15.69926939,0.0002871,70.0012,54.0054,253.6618,106.4263,2.3071e-05,2.563e-05,0.0,0 STARLINK-5918,1 55939U 23037AB  23121.96187428  .00002563  00000-0  23071-4 0  9993,2 55939  70.0012  54.0054 0002871 253.6618 106.4263 15.69926939  7626,6737.243,91.724,361.042,357.174,0.0
55939.0,STARLINK-5918,PAYLOAD,2023-05-02 05:12:07,15.69913553,0.0003059,70.0015,53.2858,266.9463,93.1383,-1.153e-05,-1.598e-05,0.0,0 STARLINK-5918,1 55939U 23037AB  23122.21674837 -.00001598  00000-0 -11530-4 0  9993,2 55939  70.0015  53.2858 0003059 266.9463  93.1383 15.69913553  7663,6737.281,91.725,361.207,357.085,0.0
55939.0,STARLINK-5918,PAYLOAD,2023-05-02 12:50:52,15.6991916,0.0003699,70.0004,52.3923,270.0781,89.9991,1.1404e-05,1.158e-05,0.0,0 STARLINK-5918,1 55939U 23037AB  23122.53532845  .00001158  00000-0  11404-4 0  9990,2 55939  70.0004  52.3923 0003699 270.0781  89.9991 15.69919160  7379,6737.265,91.724,361.622,356.638,0.0
55939.0,STARLINK-5918,PAYLOAD,2023-05-02 20:29:38,15.69905777,0.0003397,70.0026,51.4969,262.1511,97.9299,-2.7145e-05,-3.473e-05,0.0,0 STARLINK-5918,1 55939U 23037AB  23122.85392045 -.00003473  00000-0 -27145-4 0  9994,2 55939  70.0026  51.4969 0003397 262.1511  97.9299 15.69905777  7426,6737.304,91.725,361.457,356.88,0.0
55939.0,STARLINK-5918,PAYLOAD,2023-05-03 05:40:08,15.69934107,0.0002849,70.0027,50.4219,263.6892,96.398,3.0098e-05,3.409e-05,0.0,0 STARLINK-5918,1 55939U 23037AB  23123.23621005  .00003409  00000-0  30098-4 0  9996,2 55939  70.0027  50.4219 0002849 263.6892  96.3980 15.69934107  7826,6737.223,91.724,361.007,357.168,0.0
55939.0,STARLINK-5918,PAYLOAD,2023-05-03 20:57:39,15.69930263,0.0003391,70.002,48.6288,261.3266,98.7546,2.0573e-05,2.262e-05,0.0,0 STARLINK-5918,1 55939U 23037AB  23123.87337655  .00002262  00000-0  20573-4 0  9994,2 55939  70.0020  48.6288 0003391 261.3266  98.7546 15.69930263  7583,6737.234,91.724,361.383,356.814,0.0
55939.0,STARLINK-5918,PAYLOAD,2023-05-04 04:36:25,15.69915707,0.0003157,70.0022,47.7344,260.1194,99.9646,-8.1415e-06,-1.191e-05,0.0,0 STARLINK-5918,1 55939U 23037AB  23124.19196710 -.00001191  00000-0 -81415-5 0  9990,2 55939  70.0022  47.7344 0003157 260.1194  99.9646 15.69915707  7978,6737.275,91.725,361.267,357.013,0.0
